[{"OBJECT_NAME":"STARLINK-6221","OBJECT_ID":"2023-064AN","EPOCH":"2026-03-09T13:43:58.315008","MEAN_MOTION":14.98334735,"ECCENTRICITY":0.0003403,"INCLINATION":69.999,"RA_OF_ASC_NODE":124.6773,"ARG_OF_PERICENTER":267.1667,"MEAN_ANOMALY":92.9103,"EPHEMERIS_TYPE":0,"CLASSIFICATION_TYPE":"U","NORAD_CAT_ID":56484,"ELEMENT_SET_NO":999,"REV_AT_EPOCH":15571,"BSTAR":4.6007e-5,"MEAN_MOTION_DOT":4.56e-6,"MEAN_MOTION_DDOT":0},{"OBJECT_NAME":"AISSAT 1","OBJECT_ID":"2010-035C","EPOCH":"2026-03-09T18:13:55.092288","MEAN_MOTION":14.96891223,"ECCENTRICITY":0.00096674,"INCLINATION":98.1015,"RA_OF_ASC_NODE":324.4785,"ARG_OF_PERICENTER":31.9143,"MEAN_ANOMALY":328.2662,"EPHEMERIS_TYPE":0,"CLASSIFICATION_TYPE":"U","NORAD_CAT_ID":36797,"ELEMENT_SET_NO":999,"REV_AT_EPOCH":84934,"BSTAR":0.00027660201,"MEAN_MOTION_DOT":3.114e-5,"MEAN_MOTION_DDOT":0}]
